DMSP 5D-3 F16 (USA 172) 
1 28054U 03048A   25334.10533633  .00000166  00000+0  11030-3 0  9995
2 28054  99.0057 351.4624 0007049 358.8863  45.9966 14.14417015141347
METEOSAT-9 (MSG-2)      
1 28912U 05049B   25333.87238306  .00000144  00000+0  00000+0 0  9990
2 28912   8.9081  56.0917 0003865 183.2571 189.3357  1.00270171  5007
DMSP 5D-3 F17 (USA 191) 
1 29522U 06050A   25334.11259125  .00000220  00000+0  13619-3 0  9990
2 29522  98.7396 339.7645 0009121 264.2777  95.7357 14.14911052984262
FENGYUN 3A              
1 32958U 08026A   25334.06846801  .00000146  00000+0  89788-4 0  9997
2 32958  98.6678 273.8632 0008523 349.1771  10.9220 14.19508113907153
GOES 14                 
1 35491U 09033A   25334.12732147 -.00000046  00000+0  00000+0 0  9990
2 35491   1.1635  85.5596 0004055 147.1379 134.0524  1.00272778  4595
DMSP 5D-3 F18 (USA 210) 
1 35951U 09057A   25334.13736370  .00000294  00000+0  17547-3 0  9992
2 35951  98.8821 310.6021 0012085  95.5058 264.7493 14.14757613831446
EWS-G2 (GOES 15)        
1 36411U 10008A   25334.10114105  .00000059  00000+0  00000+0 0  9996
2 36411   0.7795  86.0366 0005782 168.1040 273.0596  1.00267602 57644
COMS 1                  
1 36744U 10032A   25333.93948693 -.00000322  00000+0  00000+0 0  9993
2 36744   4.3078  78.1385 0000931 173.4718 283.8646  1.00271288 49092
