{
  "type": "FeatureCollection",
  "features": [
    {
      "type": "Feature",
      "properties": {
        "OBJECT_NAME": "DMSP 5D-3 F16 (USA 172)",
        "OBJECT_ID": "2003-048A",
        "EPOCH": "2025-11-30T02:31:41.058912",
        "MEAN_MOTION": 14.14417015,
        "ECCENTRICITY": 0.0007049,
        "INCLINATION": 99.0057,
        "RA_OF_ASC_NODE": 351.4624,
        "ARG_OF_PERICENTER": 358.8863,
        "MEAN_ANOMALY": 45.9966,
        "EPHEMERIS_TYPE": 0,
        "CLASSIFICATION_TYPE": "U",
        "NORAD_CAT_ID": 28054,
        "ELEMENT_SET_NO": 999,
        "REV_AT_EPOCH": 14134,
        "BSTAR": 0.0001103,
        "MEAN_MOTION_DOT": 1.66e-06,
        "MEAN_MOTION_DDOT": 0,
        "norad_id": 28054,
        "name": "DMSP 5D-3 F16 (USA 172)",
        "group": "weather",
        "longitude_deg": NaN,
        "latitude_deg": NaN,
        "alt_km": NaN,
        "orbit_class": "HEO",
        "timestamp": "2025-11-30T09:33:02.500992+00:00"
      },
      "geometry": {
        "type": "Point",
        "coordinates": [
          NaN,
          NaN
        ]
      }
    },
    {
      "type": "Feature",
      "properties": {
        "OBJECT_NAME": "METEOSAT-9 (MSG-2)",
        "OBJECT_ID": "2005-049B",
        "EPOCH": "2025-11-29T20:56:13.896384",
        "MEAN_MOTION": 1.00270171,
        "ECCENTRICITY": 0.0003865,
        "INCLINATION": 8.9081,
        "RA_OF_ASC_NODE": 56.0917,
        "ARG_OF_PERICENTER": 183.2571,
        "MEAN_ANOMALY": 189.3357,
        "EPHEMERIS_TYPE": 0,
        "CLASSIFICATION_TYPE": "U",
        "NORAD_CAT_ID": 28912,
        "ELEMENT_SET_NO": 999,
        "REV_AT_EPOCH": 500,
        "BSTAR": 0,
        "MEAN_MOTION_DOT": 1.44e-06,
        "MEAN_MOTION_DDOT": 0,
        "norad_id": 28912,
        "name": "METEOSAT-9 (MSG-2)",
        "group": "weather",
        "longitude_deg": NaN,
        "latitude_deg": NaN,
        "alt_km": NaN,
        "orbit_class": "HEO",
        "timestamp": "2025-11-30T09:33:02.501339+00:00"
      },
      "geometry": {
        "type": "Point",
        "coordinates": [
          NaN,
          NaN
        ]
      }
    },
    {
      "type": "Feature",
      "properties": {
        "OBJECT_NAME": "DMSP 5D-3 F17 (USA 191)",
        "OBJECT_ID": "2006-050A",
        "EPOCH": "2025-11-30T02:42:07.884000",
        "MEAN_MOTION": 14.14911052,
        "ECCENTRICITY": 0.0009121,
        "INCLINATION": 98.7396,
        "RA_OF_ASC_NODE": 339.7645,
        "ARG_OF_PERICENTER": 264.2777,
        "MEAN_ANOMALY": 95.7357,
        "EPHEMERIS_TYPE": 0,
        "CLASSIFICATION_TYPE": "U",
        "NORAD_CAT_ID": 29522,
        "ELEMENT_SET_NO": 999,
        "REV_AT_EPOCH": 98426,
        "BSTAR": 0.00013619,
        "MEAN_MOTION_DOT": 2.2e-06,
        "MEAN_MOTION_DDOT": 0,
        "norad_id": 29522,
        "name": "DMSP 5D-3 F17 (USA 191)",
        "group": "weather",
        "longitude_deg": NaN,
        "latitude_deg": NaN,
        "alt_km": NaN,
        "orbit_class": "HEO",
        "timestamp": "2025-11-30T09:33:02.501473+00:00"
      },
      "geometry": {
        "type": "Point",
        "coordinates": [
          NaN,
          NaN
        ]
      }
    },
    {
      "type": "Feature",
      "properties": {
        "OBJECT_NAME": "FENGYUN 3A",
        "OBJECT_ID": "2008-026A",
        "EPOCH": "2025-11-30T01:38:35.636064",
        "MEAN_MOTION": 14.19508113,
        "ECCENTRICITY": 0.0008523,
        "INCLINATION": 98.6678,
        "RA_OF_ASC_NODE": 273.8632,
        "ARG_OF_PERICENTER": 349.1771,
        "MEAN_ANOMALY": 10.922,
        "EPHEMERIS_TYPE": 0,
        "CLASSIFICATION_TYPE": "U",
        "NORAD_CAT_ID": 32958,
        "ELEMENT_SET_NO": 999,
        "REV_AT_EPOCH": 90715,
        "BSTAR": 8.9788e-05,
        "MEAN_MOTION_DOT": 1.46e-06,
        "MEAN_MOTION_DDOT": 0,
        "norad_id": 32958,
        "name": "FENGYUN 3A",
        "group": "weather",
        "longitude_deg": NaN,
        "latitude_deg": NaN,
        "alt_km": NaN,
        "orbit_class": "HEO",
        "timestamp": "2025-11-30T09:33:02.501902+00:00"
      },
      "geometry": {
        "type": "Point",
        "coordinates": [
          NaN,
          NaN
        ]
      }
    },
    {
      "type": "Feature",
      "properties": {
        "OBJECT_NAME": "GOES 14",
        "OBJECT_ID": "2009-033A",
        "EPOCH": "2025-11-30T03:03:20.575008",
        "MEAN_MOTION": 1.00272778,
        "ECCENTRICITY": 0.0004055,
        "INCLINATION": 1.1635,
        "RA_OF_ASC_NODE": 85.5596,
        "ARG_OF_PERICENTER": 147.1379,
        "MEAN_ANOMALY": 134.0524,
        "EPHEMERIS_TYPE": 0,
        "CLASSIFICATION_TYPE": "U",
        "NORAD_CAT_ID": 35491,
        "ELEMENT_SET_NO": 999,
        "REV_AT_EPOCH": 459,
        "BSTAR": 0,
        "MEAN_MOTION_DOT": -4.6e-07,
        "MEAN_MOTION_DDOT": 0,
        "norad_id": 35491,
        "name": "GOES 14",
        "group": "weather",
        "longitude_deg": NaN,
        "latitude_deg": NaN,
        "alt_km": NaN,
        "orbit_class": "HEO",
        "timestamp": "2025-11-30T09:33:02.502128+00:00"
      },
      "geometry": {
        "type": "Point",
        "coordinates": [
          NaN,
          NaN
        ]
      }
    },
    {
      "type": "Feature",
      "properties": {
        "OBJECT_NAME": "DMSP 5D-3 F18 (USA 210)",
        "OBJECT_ID": "2009-057A",
        "EPOCH": "2025-11-30T03:17:48.223680",
        "MEAN_MOTION": 14.14757613,
        "ECCENTRICITY": 0.0012085,
        "INCLINATION": 98.8821,
        "RA_OF_ASC_NODE": 310.6021,
        "ARG_OF_PERICENTER": 95.5058,
        "MEAN_ANOMALY": 264.7493,
        "EPHEMERIS_TYPE": 0,
        "CLASSIFICATION_TYPE": "U",
        "NORAD_CAT_ID": 35951,
        "ELEMENT_SET_NO": 999,
        "REV_AT_EPOCH": 83144,
        "BSTAR": 0.00017547,
        "MEAN_MOTION_DOT": 2.94e-06,
        "MEAN_MOTION_DDOT": 0,
        "norad_id": 35951,
        "name": "DMSP 5D-3 F18 (USA 210)",
        "group": "weather",
        "longitude_deg": NaN,
        "latitude_deg": NaN,
        "alt_km": NaN,
        "orbit_class": "HEO",
        "timestamp": "2025-11-30T09:33:02.502281+00:00"
      },
      "geometry": {
        "type": "Point",
        "coordinates": [
          NaN,
          NaN
        ]
      }
    },
    {
      "type": "Feature",
      "properties": {
        "OBJECT_NAME": "EWS-G2 (GOES 15)",
        "OBJECT_ID": "2010-008A",
        "EPOCH": "2025-11-30T02:25:38.586720",
        "MEAN_MOTION": 1.00267602,
        "ECCENTRICITY": 0.0005782,
        "INCLINATION": 0.7795,
        "RA_OF_ASC_NODE": 86.0366,
        "ARG_OF_PERICENTER": 168.104,
        "MEAN_ANOMALY": 273.0596,
        "EPHEMERIS_TYPE": 0,
        "CLASSIFICATION_TYPE": "U",
        "NORAD_CAT_ID": 36411,
        "ELEMENT_SET_NO": 999,
        "REV_AT_EPOCH": 5764,
        "BSTAR": 0,
        "MEAN_MOTION_DOT": 5.9e-07,
        "MEAN_MOTION_DDOT": 0,
        "norad_id": 36411,
        "name": "EWS-G2 (GOES 15)",
        "group": "weather",
        "longitude_deg": NaN,
        "latitude_deg": NaN,
        "alt_km": NaN,
        "orbit_class": "HEO",
        "timestamp": "2025-11-30T09:33:02.502425+00:00"
      },
      "geometry": {
        "type": "Point",
        "coordinates": [
          NaN,
          NaN
        ]
      }
    },
    {
      "type": "Feature",
      "properties": {
        "OBJECT_NAME": "COMS 1",
        "OBJECT_ID": "2010-032A",
        "EPOCH": "2025-11-29T22:32:51.670752",
        "MEAN_MOTION": 1.00271288,
        "ECCENTRICITY": 9.31e-05,
        "INCLINATION": 4.3078,
        "RA_OF_ASC_NODE": 78.1385,
        "ARG_OF_PERICENTER": 173.4718,
        "MEAN_ANOMALY": 283.8646,
        "EPHEMERIS_TYPE": 0,
        "CLASSIFICATION_TYPE": "U",
        "NORAD_CAT_ID": 36744,
        "ELEMENT_SET_NO": 999,
        "REV_AT_EPOCH": 4909,
        "BSTAR": 0,
        "MEAN_MOTION_DOT": -3.22e-06,
        "MEAN_MOTION_DDOT": 0,
        "norad_id": 36744,
        "name": "COMS 1",
        "group": "weather",
        "longitude_deg": NaN,
        "latitude_deg": NaN,
        "alt_km": NaN,
        "orbit_class": "HEO",
        "timestamp": "2025-11-30T09:33:02.502561+00:00"
      },
      "geometry": {
        "type": "Point",
        "coordinates": [
          NaN,
          NaN
        ]
      }
    }
  ]
}